STARLINK-31826          
1 59768U 24091R   26068.69436063 -.00000809  00000+0 -15209-4 0  9999
2 59768  53.1610  26.9672 0001102  74.8938 285.2185 15.30197191103000
TRANSPORTER-12 OBJECT AZ
1 62656U 25009AZ  26068.71026235  .00016057  00000+0  54903-3 0  9991
2 62656  97.3981 151.9913 0000987  45.3581 314.7740 15.30349724 63792
